CCSDS_OMM_VERS = 2.0
CREATION_DATE  = 
ORIGINATOR     = 

OBJECT_NAME    = ELECTRON KICK STAGE R/B
OBJECT_ID      = 2026-056C
CENTER_NAME    = EARTH
REF_FRAME      = TEME
TIME_SYSTEM    = UTC
MEAN_ELEMENT_THEORY = SGP/SGP4

EPOCH          = 2026-03-30T03:12:49.543200
MEAN_MOTION    = 15.39912343
ECCENTRICITY   = .015649
INCLINATION    = 50.2932
RA_OF_ASC_NODE = 0.5823
ARG_OF_PERICENTER = 48.7994
MEAN_ANOMALY   = 312.6343

EPHEMERIS_TYPE = 0
CLASSIFICATION_TYPE = U
NORAD_CAT_ID   = 68293
ELEMENT_SET_NO = 999
REV_AT_EPOCH   = 145
BSTAR          = .17018E-2
MEAN_MOTION_DOT = .107712E-2
MEAN_MOTION_DDOT = 0

CCSDS_OMM_VERS = 2.0
CREATION_DATE  = 
ORIGINATOR     = 

OBJECT_NAME    = STARLINK-37107
OBJECT_ID      = 2026-057A
CENTER_NAME    = EARTH
REF_FRAME      = TEME
TIME_SYSTEM    = UTC
MEAN_ELEMENT_THEORY = SGP/SGP4

EPOCH          = 2026-03-30T04:00:01.999584
MEAN_MOTION    = 15.98553135
ECCENTRICITY   = .0001323
INCLINATION    = 97.2807
RA_OF_ASC_NODE = 212.4007
ARG_OF_PERICENTER = 59.9820
MEAN_ANOMALY   = 272.1824

EPHEMERIS_TYPE = 0
CLASSIFICATION_TYPE = U
NORAD_CAT_ID   = 68294
ELEMENT_SET_NO = 999
REV_AT_EPOCH   = 245
BSTAR          = -.24499E-2
MEAN_MOTION_DOT = -.1139955E-1
MEAN_MOTION_DDOT = .4111E-3

CCSDS_OMM_VERS = 2.0
CREATION_DATE  = 
ORIGINATOR     = 

OBJECT_NAME    = STARLINK-37147
OBJECT_ID      = 2026-057B
CENTER_NAME    = EARTH
REF_FRAME      = TEME
TIME_SYSTEM    = UTC
MEAN_ELEMENT_THEORY = SGP/SGP4

EPOCH          = 2026-03-30T04:00:01.999584
MEAN_MOTION    = 15.98641353
ECCENTRICITY   = .0001281
INCLINATION    = 97.2804
RA_OF_ASC_NODE = 212.4015
ARG_OF_PERICENTER = 58.1330
MEAN_ANOMALY   = 276.7495

EPHEMERIS_TYPE = 0
CLASSIFICATION_TYPE = U
NORAD_CAT_ID   = 68295
ELEMENT_SET_NO = 999
REV_AT_EPOCH   = 244
BSTAR          = -.24322E-2
MEAN_MOTION_DOT = -.1137277E-1
MEAN_MOTION_DDOT = .40971E-3

CCSDS_OMM_VERS = 2.0
CREATION_DATE  = 
ORIGINATOR     = 

OBJECT_NAME    = STARLINK-37142
OBJECT_ID      = 2026-057C
CENTER_NAME    = EARTH
REF_FRAME      = TEME
TIME_SYSTEM    = UTC
MEAN_ELEMENT_THEORY = SGP/SGP4

EPOCH          = 2026-03-30T04:00:01.999584
MEAN_MOTION    = 15.98951647
ECCENTRICITY   = .0001338
INCLINATION    = 97.2800
RA_OF_ASC_NODE = 212.4052
ARG_OF_PERICENTER = 55.8292
MEAN_ANOMALY   = 288.1200

EPHEMERIS_TYPE = 0
CLASSIFICATION_TYPE = U
NORAD_CAT_ID   = 68296
ELEMENT_SET_NO = 999
REV_AT_EPOCH   = 233
BSTAR          = -.24072E-2
MEAN_MOTION_DOT = -.1145138E-1
MEAN_MOTION_DDOT = .41639E-3

CCSDS_OMM_VERS = 2.0
CREATION_DATE  = 
ORIGINATOR     = 

OBJECT_NAME    = STARLINK-37115
OBJECT_ID      = 2026-057D
CENTER_NAME    = EARTH
REF_FRAME      = TEME
TIME_SYSTEM    = UTC
MEAN_ELEMENT_THEORY = SGP/SGP4

EPOCH          = 2026-03-30T04:00:01.999584
MEAN_MOTION    = 15.98850965
ECCENTRICITY   = .0001328
INCLINATION    = 97.2798
RA_OF_ASC_NODE = 212.4033
ARG_OF_PERICENTER = 56.5695
MEAN_ANOMALY   = 284.6103

EPHEMERIS_TYPE = 0
CLASSIFICATION_TYPE = U
NORAD_CAT_ID   = 68297
ELEMENT_SET_NO = 999
REV_AT_EPOCH   = 233
BSTAR          = -.24157E-2
MEAN_MOTION_DOT = -.1142785E-1
MEAN_MOTION_DDOT = .41434E-3

CCSDS_OMM_VERS = 2.0
CREATION_DATE  = 
ORIGINATOR     = 

OBJECT_NAME    = STARLINK-36355
OBJECT_ID      = 2026-057E
CENTER_NAME    = EARTH
REF_FRAME      = TEME
TIME_SYSTEM    = UTC
MEAN_ELEMENT_THEORY = SGP/SGP4

EPOCH          = 2026-03-30T04:00:01.999584
MEAN_MOTION    = 15.98743733
ECCENTRICITY   = .0001186
INCLINATION    = 97.2801
RA_OF_ASC_NODE = 212.4021
ARG_OF_PERICENTER = 62.8372
MEAN_ANOMALY   = 274.8635

EPHEMERIS_TYPE = 0
CLASSIFICATION_TYPE = U
NORAD_CAT_ID   = 68298
ELEMENT_SET_NO = 999
REV_AT_EPOCH   = 260
BSTAR          = -.24318E-2
MEAN_MOTION_DOT = -.1143507E-1
MEAN_MOTION_DDOT = .41434E-3

CCSDS_OMM_VERS = 2.0
CREATION_DATE  = 
ORIGINATOR     = 

OBJECT_NAME    = STARLINK-37118
OBJECT_ID      = 2026-057F
CENTER_NAME    = EARTH
REF_FRAME      = TEME
TIME_SYSTEM    = UTC
MEAN_ELEMENT_THEORY = SGP/SGP4

EPOCH          = 2026-03-30T04:00:01.999584
MEAN_MOTION    = 15.99163740
ECCENTRICITY   = .0001278
INCLINATION    = 97.2795
RA_OF_ASC_NODE = 212.4076
ARG_OF_PERICENTER = 52.8994
MEAN_ANOMALY   = 297.3835

EPHEMERIS_TYPE = 0
CLASSIFICATION_TYPE = U
NORAD_CAT_ID   = 68299
ELEMENT_SET_NO = 999
REV_AT_EPOCH   = 244
BSTAR          = -.2376E-2
MEAN_MOTION_DOT = -.1143781E-1
MEAN_MOTION_DDOT = .41645E-3

CCSDS_OMM_VERS = 2.0
CREATION_DATE  = 
ORIGINATOR     = 

OBJECT_NAME    = STARLINK-36875
OBJECT_ID      = 2026-057G
CENTER_NAME    = EARTH
REF_FRAME      = TEME
TIME_SYSTEM    = UTC
MEAN_ELEMENT_THEORY = SGP/SGP4

EPOCH          = 2026-03-30T04:00:01.999584
MEAN_MOTION    = 15.99064650
ECCENTRICITY   = .0001344
INCLINATION    = 97.2797
RA_OF_ASC_NODE = 212.4064
ARG_OF_PERICENTER = 53.7299
MEAN_ANOMALY   = 293.8257

EPHEMERIS_TYPE = 0
CLASSIFICATION_TYPE = U
NORAD_CAT_ID   = 68300
ELEMENT_SET_NO = 999
REV_AT_EPOCH   = 250
BSTAR          = -.2398E-2
MEAN_MOTION_DOT = -.1147945E-1
MEAN_MOTION_DDOT = .4188E-3

CCSDS_OMM_VERS = 2.0
CREATION_DATE  = 
ORIGINATOR     = 

OBJECT_NAME    = STARLINK-37099
OBJECT_ID      = 2026-057H
CENTER_NAME    = EARTH
REF_FRAME      = TEME
TIME_SYSTEM    = UTC
MEAN_ELEMENT_THEORY = SGP/SGP4

EPOCH          = 2026-03-30T04:00:01.999584
MEAN_MOTION    = 15.99282811
ECCENTRICITY   = .0001354
INCLINATION    = 97.2792
RA_OF_ASC_NODE = 212.4096
ARG_OF_PERICENTER = 56.7050
MEAN_ANOMALY   = 297.3844

EPHEMERIS_TYPE = 0
CLASSIFICATION_TYPE = U
NORAD_CAT_ID   = 68301
ELEMENT_SET_NO = 999
REV_AT_EPOCH   = 233
BSTAR          = -.23542E-2
MEAN_MOTION_DOT = -.1140888E-1
MEAN_MOTION_DDOT = .41505E-3

CCSDS_OMM_VERS = 2.0
CREATION_DATE  = 
ORIGINATOR     = 

OBJECT_NAME    = STARLINK-37007
OBJECT_ID      = 2026-057J
CENTER_NAME    = EARTH
REF_FRAME      = TEME
TIME_SYSTEM    = UTC
MEAN_ELEMENT_THEORY = SGP/SGP4

EPOCH          = 2026-03-30T04:00:01.999584
MEAN_MOTION    = 15.99534824
ECCENTRICITY   = .0001237
INCLINATION    = 97.2788
RA_OF_ASC_NODE = 212.4124
ARG_OF_PERICENTER = 56.1458
MEAN_ANOMALY   = 305.4724

EPHEMERIS_TYPE = 0
CLASSIFICATION_TYPE = U
NORAD_CAT_ID   = 68302
ELEMENT_SET_NO = 999
REV_AT_EPOCH   = 255
BSTAR          = -.23543E-2
MEAN_MOTION_DOT = -.1157E-1
MEAN_MOTION_DDOT = .42715E-3

CCSDS_OMM_VERS = 2.0
CREATION_DATE  = 
ORIGINATOR     = 

OBJECT_NAME    = STARLINK-36300
OBJECT_ID      = 2026-057K
CENTER_NAME    = EARTH
REF_FRAME      = TEME
TIME_SYSTEM    = UTC
MEAN_ELEMENT_THEORY = SGP/SGP4

EPOCH          = 2026-03-30T04:00:01.999584
MEAN_MOTION    = 15.99416152
ECCENTRICITY   = .0001331
INCLINATION    = 97.2790
RA_OF_ASC_NODE = 212.4108
ARG_OF_PERICENTER = 58.6461
MEAN_ANOMALY   = 299.4898

EPHEMERIS_TYPE = 0
CLASSIFICATION_TYPE = U
NORAD_CAT_ID   = 68303
ELEMENT_SET_NO = 999
REV_AT_EPOCH   = 260
BSTAR          = -.23543E-2
MEAN_MOTION_DOT = -.1149422E-1
MEAN_MOTION_DDOT = .42143E-3

CCSDS_OMM_VERS = 2.0
CREATION_DATE  = 
ORIGINATOR     = 

OBJECT_NAME    = STARLINK-36849
OBJECT_ID      = 2026-057L
CENTER_NAME    = EARTH
REF_FRAME      = TEME
TIME_SYSTEM    = UTC
MEAN_ELEMENT_THEORY = SGP/SGP4

EPOCH          = 2026-03-30T04:00:01.999584
MEAN_MOTION    = 15.99636538
ECCENTRICITY   = .0001326
INCLINATION    = 97.2788
RA_OF_ASC_NODE = 212.4139
ARG_OF_PERICENTER = 55.5371
MEAN_ANOMALY   = 308.8105

EPHEMERIS_TYPE = 0
CLASSIFICATION_TYPE = U
NORAD_CAT_ID   = 68304
ELEMENT_SET_NO = 999
REV_AT_EPOCH   = 250
BSTAR          = -.23321E-2
MEAN_MOTION_DOT = -.1152745E-1
MEAN_MOTION_DDOT = .42472E-3

