ELECTRON KICK STAGE R/B 
1 68293U 26056C   26089.13390675  .00107712  00000+0  17018-2 0  9992
2 68293  50.2932   0.5823 0156490  48.7994 312.6343 15.39912343  1457
STARLINK-37107          
1 68294U 26057A   26089.16668981 -.01139955  41110-3 -24499-2 0  9994
2 68294  97.2807 212.4007 0001323  59.9820 272.1824 15.98553135  2454
STARLINK-37147          
1 68295U 26057B   26089.16668981 -.01137277  40971-3 -24322-2 0  9999
2 68295  97.2804 212.4015 0001281  58.1330 276.7495 15.98641353  2444
STARLINK-37142          
1 68296U 26057C   26089.16668981 -.01145138  41639-3 -24072-2 0  9999
2 68296  97.2800 212.4052 0001338  55.8292 288.1200 15.98951647  2335
STARLINK-37115          
1 68297U 26057D   26089.16668981 -.01142785  41434-3 -24157-2 0  9992
2 68297  97.2798 212.4033 0001328  56.5695 284.6103 15.98850965  2339
STARLINK-36355          
1 68298U 26057E   26089.16668981 -.01143507  41434-3 -24318-2 0  9995
2 68298  97.2801 212.4021 0001186  62.8372 274.8635 15.98743733  2601
STARLINK-37118          
1 68299U 26057F   26089.16668981 -.01143781  41645-3 -23760-2 0  9994
2 68299  97.2795 212.4076 0001278  52.8994 297.3835 15.99163740  2444
STARLINK-36875          
1 68300U 26057G   26089.16668981 -.01147945  41880-3 -23980-2 0  9998
2 68300  97.2797 212.4064 0001344  53.7299 293.8257 15.99064650  2504
STARLINK-37099          
1 68301U 26057H   26089.16668981 -.01140888  41505-3 -23542-2 0  9996
2 68301  97.2792 212.4096 0001354  56.7050 297.3844 15.99282811  2337
STARLINK-37007          
1 68302U 26057J   26089.16668981 -.01157000  42715-3 -23543-2 0  9996
2 68302  97.2788 212.4124 0001237  56.1458 305.4724 15.99534824  2557
STARLINK-36300          
1 68303U 26057K   26089.16668981 -.01149422  42143-3 -23543-2 0  9991
2 68303  97.2790 212.4108 0001331  58.6461 299.4898 15.99416152  2602
STARLINK-36849          
1 68304U 26057L   26089.16668981 -.01152745  42472-3 -23321-2 0  9993
2 68304  97.2788 212.4139 0001326  55.5371 308.8105 15.99636538  2501
